GLOBALSTAR M075         
1 37192U 10054E   25321.46701027 -.00000109  00000+0 -28885-4 0  9998
2 37192  51.9950  74.8306 0000768 110.5251 324.5459 12.62269670695202
GLOBALSTAR M073         
1 37193U 10054F   25321.48270566 -.00000073  00000+0  17055-3 0  9995
2 37193  52.0082 348.7242 0000084  71.7674  72.9956 12.62264293697193
GLOBALSTAR M083         
1 37739U 11033A   25321.24853262 -.00000090  00000+0  78261-4 0  9999
2 37739  51.9869 297.9554 0000267  44.1769  57.8093 12.62264486666186
GLOBALSTAR M088         
1 37740U 11033B   25321.39616999 -.00000069  00000+0  19539-3 0  9999
2 37740  52.0199 203.4211 0001023  77.8085  94.2878 12.62270166661748
GLOBALSTAR M091         
1 37741U 11033C   25321.33001036 -.00000068  00000+0  20096-3 0  9993
2 37741  51.9970 166.9009 0001017  97.0469  74.1593 12.62261846662528
GLOBALSTAR M085         
1 37742U 11033D   25321.44391487 -.00000093  00000+0  62880-4 0  9994
2 37742  52.0105 117.6589 0000967 116.3903 273.0649 12.62266837663054
GLOBALSTAR M081         
1 37743U 11033E   25321.47146713 -.00000085  00000+0  10626-3 0  9999
2 37743  51.9935 120.2515 0000800 106.0603 288.8364 12.62270605663205
GLOBALSTAR M089         
1 37744U 11033F   25321.52073464 -.00000117  00000+0 -72748-4 0  9999
2 37744  51.9935  74.2988 0000742  93.4886 346.4091 12.62272513664057
